{"fetched_at":"2026-03-29T16:36:15Z","count":15609,"tles":[{"name":"STARLINK-32242","line1":"1 60429U 24144E   26087.80468905  .00000731  00000+0  36795-4 0  9993","line2":"2 60429  53.1600 128.4950 0000988  77.5349 282.5762 15.30197710 92273","category":"Starlink"}]}